NORAD_CAT_ID,OBJECT_NAME,OBJECT_TYPE,EPOCH,MEAN_MOTION,ECCENTRICITY,INCLINATION,RA_OF_ASC_NODE,ARG_OF_PERICENTER,MEAN_ANOMALY,BSTAR,MEAN_MOTION_DOT,MEAN_MOTION_DDOT,TLE_LINE0,TLE_LINE1,TLE_LINE2,SEMIMAJOR_AXIS,PERIOD,APOGEE,PERIGEE,DECAYED
53277.0,STARLINK-4178,PAYLOAD,2023-03-06 18:17:17,15.08837551,0.0001423,53.2176,77.4258,90.2619,269.8536,-8.8367e-05,-1.694e-05,0.0,0 STARLINK-4178,1 53277U 22086AM  23065.76200306 -.00001694  00000-0 -88367-4 0  9990,2 53277  53.2176  77.4258 0001423  90.2619 269.8536 15.08837551 35123,6917.888,95.438,540.737,538.768,0.0
53277.0,STARLINK-4178,PAYLOAD,2023-03-07 11:46:30,15.08846467,0.0001378,53.2182,74.1538,108.9108,251.2033,1.1142e-05,-1.11e-06,0.0,0 STARLINK-4178,1 53277U 22086AM  23066.49063631 -.00000111  00000-0  11142-4 0  9998,2 53277  53.2182  74.1538 0001378 108.9108 251.2033 15.08846467 35239,6917.861,95.437,540.679,538.772,0.0
53277.0,STARLINK-4178,PAYLOAD,2023-03-08 11:37:17,15.08854081,0.0001301,53.2185,69.6935,106.8532,253.2603,-1.6266e-05,-5.47e-06,0.0,0 STARLINK-4178,1 53277U 22086AM  23067.48423368 -.00000547  00000-0 -16266-4 0  9991,2 53277  53.2185  69.6935 0001301 106.8532 253.2603 15.08854081 35557,6917.837,95.437,540.602,538.802,0.0
53277.0,STARLINK-4178,PAYLOAD,2023-03-09 06:41:56,15.08833954,0.0001034,53.2179,66.1266,95.8005,264.3104,8.7279e-05,1.101e-05,0.0,0 STARLINK-4178,1 53277U 22086AM  23068.27912354  .00001101  00000-0  87279-4 0  9994,2 53277  53.2179  66.1266 0001034  95.8005 264.3104 15.08833954 35504,6917.899,95.438,540.479,539.049,0.0
53277.0,STARLINK-4178,PAYLOAD,2023-03-09 16:14:14,15.08841053,9.6e-05,53.2164,64.339,83.062,277.0481,1.6323e-05,-2.8e-07,0.0,0 STARLINK-4178,1 53277U 22086AM  23068.67656061 -.00000028  00000-0  16323-4 0  9998,2 53277  53.2164  64.3390 0000960  83.0620 277.0481 15.08841053 35738,6917.877,95.437,540.406,539.078,0.0
53277.0,STARLINK-4178,PAYLOAD,2023-03-10 09:43:28,15.08858208,0.0001081,53.2179,61.0707,92.4438,267.6678,7.0772e-05,8.39e-06,0.0,0 STARLINK-4178,1 53277U 22086AM  23069.40518802  .00000839  00000-0  70772-4 0  9997,2 53277  53.2179  61.0707 0001081  92.4438 267.6678 15.08858208 35672,6917.825,95.436,540.438,538.942,0.0
53277.0,STARLINK-4178,PAYLOAD,2023-03-10 16:05:01,15.08847333,0.0001083,53.2179,59.8813,80.9696,279.1418,-1.9596e-05,-6e-06,0.0,0 STARLINK-4178,1 53277U 22086AM  23069.67015729 -.00000600  00000-0 -19596-4 0  9991,2 53277  53.2179  59.8813 0001083  80.9696 279.1418 15.08847333 35717,6917.858,95.437,540.472,538.974,0.0
53277.0,STARLINK-4178,PAYLOAD,2023-03-11 06:23:30,15.08840698,0.0001098,53.2172,57.204,65.4097,294.7009,-3.9503e-05,-9.16e-06,0.0,0 STARLINK-4178,1 53277U 22086AM  23070.26632700 -.00000916  00000-0 -39503-4 0  9992,2 53277  53.2172  57.2040 0001098  65.4097 294.7009 15.08840698 35809,6917.878,95.438,540.503,538.984,0.0
53277.0,STARLINK-4178,PAYLOAD,2023-03-11 09:34:16,15.08842352,0.0001071,53.2174,56.6095,70.0217,290.089,-2.3861e-05,-6.68e-06,0.0,0 STARLINK-4178,1 53277U 22086AM  23070.39880510 -.00000668  00000-0 -23861-4 0  9994,2 53277  53.2174  56.6095 0001071  70.0217 290.0890 15.08842352 35997,6917.873,95.437,540.479,538.997,0.0
53277.0,STARLINK-4178,PAYLOAD,2023-03-12 11:00:25,15.08860711,0.0001229,53.2183,51.8523,83.5559,276.5573,0.00011061,1.474e-05,0.0,0 STARLINK-4178,1 53277U 22086AM  23071.45863055  .00001474  00000-0  11061-3 0  9999,2 53277  53.2183  51.8523 0001229  83.5559 276.5573 15.08860711 35988,6917.817,95.436,540.532,538.832,0.0
53277.0,STARLINK-4178,PAYLOAD,2023-03-13 10:51:14,15.08839231,0.0001164,53.2188,47.3917,74.9981,285.114,1.4673e-05,-5.4e-07,0.0,0 STARLINK-4178,1 53277U 22086AM  23072.45224778 -.00000054  00000-0  14673-4 0  9990,2 53277  53.2188  47.3917 0001164  74.9981 285.1140 15.08839231 36138,6917.883,95.438,540.553,538.942,0.0
53277.0,STARLINK-4178,PAYLOAD,2023-03-13 21:58:57,15.0882268,0.0001116,53.2187,45.31,86.9166,273.1954,-5.9221e-05,-1.23e-05,0.0,0 STARLINK-4178,1 53277U 22086AM  23072.91594207 -.00001230  00000-0 -59221-4 0  9994,2 53277  53.2187  45.3100 0001116  86.9166 273.1954 15.08822680 36370,6917.933,95.439,540.57,539.026,0.0
53277.0,STARLINK-4178,PAYLOAD,2023-03-14 07:31:15,15.08837389,0.0001061,53.2192,43.523,105.3616,254.7494,8.7086e-05,1.098e-05,0.0,0 STARLINK-4178,1 53277U 22086AM  23073.31336867  .00001098  00000-0  87086-4 0  9995,2 53277  53.2192  43.5230 0001061 105.3616 254.7494 15.08837389 36438,6917.888,95.438,540.487,539.019,0.0
53277.0,STARLINK-4178,PAYLOAD,2023-03-14 15:28:10,15.08846897,0.000142,53.2184,42.0374,100.6675,259.4477,-3.7077e-05,-8.78e-06,0.0,0 STARLINK-4178,1 53277U 22086AM  23073.64457051 -.00000878  00000-0 -37077-4 0  9992,2 53277  53.2184  42.0374 0001420 100.6675 259.4477 15.08846897 36318,6917.859,95.437,540.707,538.742,0.0
53277.0,STARLINK-4178,PAYLOAD,2023-03-15 04:11:13,15.0885732,0.0001476,53.2173,39.6625,77.3011,282.8146,0.0002948,4.409e-05,0.0,0 STARLINK-4178,1 53277U 22086AM  23074.17446627  .00004409  00000-0  29480-3 0  9998,2 53277  53.2173  39.6625 0001476  77.3011 282.8146 15.08857320 36396,6917.827,95.436,540.714,538.671,0.0
53277.0,STARLINK-4178,PAYLOAD,2023-03-16 04:02:02,15.08846682,8.9e-05,53.2185,35.1989,85.9803,274.1291,3.9525e-05,3.41e-06,0.0,0 STARLINK-4178,1 53277U 22086AM  23075.16808233  .00000341  00000-0  39525-4 0  9996,2 53277  53.2185  35.1989 0000890  85.9803 274.1291 15.08846682 36547,6917.86,95.437,540.341,539.109,0.0
53277.0,STARLINK-4178,PAYLOAD,2023-03-16 21:31:18,15.08834777,0.0001158,53.2196,31.9283,89.5174,270.5951,-0.00018855,-3.287e-05,0.0,0 STARLINK-4178,1 53277U 22086AM  23075.89673925 -.00003287  00000-0 -18855-3 0  9990,2 53277  53.2196  31.9283 0001158  89.5174 270.5951 15.08834777 36656,6917.896,95.438,540.562,538.96,0.0
53277.0,STARLINK-4178,PAYLOAD,2023-03-17 13:25:08,15.08844336,0.0001017,53.2188,28.9548,103.2502,256.8604,-0.00017518,-3.075e-05,0.0,0 STARLINK-4178,1 53277U 22086AM  23076.55913166 -.00003075  00000-0 -17518-3 0  9998,2 53277  53.2188  28.9548 0001017 103.2502 256.8604 15.08844336 36755,6917.867,95.437,540.436,539.029,0.0
53277.0,STARLINK-4178,PAYLOAD,2023-03-18 19:37:28,15.08830207,0.0001073,53.2201,23.3091,118.8396,241.2704,0.0001097,1.458e-05,0.0,0 STARLINK-4178,1 53277U 22086AM  23077.81769560  .00001458  00000-0  10970-3 0  9991,2 53277  53.2201  23.3091 0001073 118.8396 241.2704 15.08830207 36940,6917.91,95.438,540.518,539.033,0.0
53277.0,STARLINK-4178,PAYLOAD,2023-03-19 13:06:43,15.08837808,9.61e-05,53.2197,20.0343,87.4139,272.6963,4.2872e-05,3.95e-06,0.0,0 STARLINK-4178,1 53277U 22086AM  23078.54633639  .00000395  00000-0  42872-4 0  9995,2 53277  53.2197  20.0343 0000961  87.4139 272.6963 15.08837808 37220,6917.887,95.438,540.417,539.087,0.0
53277.0,STARLINK-4178,PAYLOAD,2023-03-20 05:00:34,15.08853652,8.15e-05,53.2188,17.0624,114.6103,245.4974,7.6216e-06,-1.66e-06,0.0,0 STARLINK-4178,1 53277U 22086AM  23079.20872748 -.00000166  00000-0  76216-5 0  9992,2 53277  53.2188  17.0624 0000815 114.6103 245.4974 15.08853652 37157,6917.839,95.437,540.267,539.14,0.0
53277.0,STARLINK-4178,PAYLOAD,2023-03-20 12:57:30,15.08838444,7.88e-05,53.2191,15.5747,75.788,284.32,-8.0499e-05,-1.568e-05,0.0,0 STARLINK-4178,1 53277U 22086AM  23079.53993957 -.00001568  00000-0 -80499-4 0  9999,2 53277  53.2191  15.5747 0000788  75.7880 284.3200 15.08838444 37200,6917.885,95.438,540.295,539.205,0.0
53277.0,STARLINK-4178,PAYLOAD,2023-03-21 04:51:20,15.0885235,0.0001021,53.2196,12.602,70.3212,289.7891,0.0001082,1.435e-05,0.0,0 STARLINK-4178,1 53277U 22086AM  23080.20232599  .00001435  00000-0  10820-3 0  9994,2 53277  53.2196  12.6020 0001021  70.3212 289.7891 15.08852350 37306,6917.843,95.437,540.414,539.001,0.0
53277.0,STARLINK-4178,PAYLOAD,2023-03-22 04:42:08,15.08850266,0.000112,53.219,8.1414,87.4862,272.6258,1.2145e-05,-9.4e-07,0.0,0 STARLINK-4178,1 53277U 22086AM  23081.19593138 -.00000094  00000-0  12145-4 0  9996,2 53277  53.2190   8.1414 0001120  87.4862 272.6258 15.08850266 37455,6917.849,95.437,540.489,538.939,0.0
53277.0,STARLINK-4178,PAYLOAD,2023-03-22 22:11:23,15.08834943,0.000115,53.2196,4.8715,80.3626,279.7496,8.9566e-07,-2.74e-06,0.0,0 STARLINK-4178,1 53277U 22086AM  23081.92458138 -.00000274  00000-0  89566-6 0  9990,2 53277  53.2196   4.8715 0001150  80.3626 279.7496 15.08834943 37738,6917.896,95.438,540.556,538.965,0.0
53277.0,STARLINK-4178,PAYLOAD,2023-03-23 04:32:55,15.08861721,0.0001348,53.219,3.6776,60.387,299.7256,-0.00016313,-2.885e-05,0.0,0 STARLINK-4178,1 53277U 22086AM  23082.18953138 -.00002885  00000-0 -16313-3 0  9997,2 53277  53.2190   3.6776 0001348  60.3870 299.7256 15.08861721 37778,6917.814,95.436,540.612,538.746,0.0
53277.0,STARLINK-4178,PAYLOAD,2023-03-23 22:02:10,15.08838413,0.0001233,53.2167,0.4049,87.2684,272.8449,-4.5918e-05,-1.019e-05,0.0,0 STARLINK-4178,1 53277U 22086AM  23082.91818244 -.00001019  00000-0 -45918-4 0  9998,2 53277  53.2167   0.4049 0001233  87.2684 272.8449 15.08838413 37884,6917.885,95.438,540.603,538.897,0.0
53277.0,STARLINK-4178,PAYLOAD,2023-03-24 04:23:41,15.08866443,0.000117,53.2181,359.219,75.1359,284.9763,0.00012918,1.77e-05,0.0,0 STARLINK-4178,1 53277U 22086AM  23083.18311782  .00001770  00000-0  12918-3 0  9998,2 53277  53.2181 359.2190 0001170  75.1359 284.9763 15.08866443 37750,6917.8,95.436,540.474,538.855,0.0
53277.0,STARLINK-4178,PAYLOAD,2023-03-24 21:52:55,15.08859437,0.0001227,53.2174,355.9462,68.7315,291.3809,4.5461e-05,4.36e-06,0.0,0 STARLINK-4178,1 53277U 22086AM  23083.91175916  .00000436  00000-0  45461-4 0  9994,2 53277  53.2174 355.9462 0001227  68.7315 291.3809 15.08859437 38030,6917.821,95.436,540.535,538.837,0.0
53277.0,STARLINK-4178,PAYLOAD,2023-03-25 01:03:40,15.08880763,0.0001139,53.2181,355.3557,79.2329,280.8791,0.00017588,2.515e-05,0.0,0 STARLINK-4178,1 53277U 22086AM  23084.04421844  .00002515  00000-0  17588-3 0  9991,2 53277  53.2181 355.3557 0001139  79.2329 280.8791 15.08880763 37882,6917.756,95.435,540.409,538.833,0.0
